{
  "type": "FeatureCollection",
  "features": [
    {
      "type": "Feature",
      "properties": {
        "norad_id": 42988,
        "name": "SKYSAT-C10",
        "group": "resource",
        "lat": 55.21901256558456,
        "lon": 107.81457787145413,
        "alt_km": 461.7149575522235,
        "timestamp": "2025-12-13T18:50:04.085976+00:00",
        "meta_object_name": "SKYSAT-C10",
        "meta_object_id": "2017-068B",
        "meta_epoch": "2025-12-13T07:37:07.767264",
        "meta_mean_motion": 15.32083487,
        "meta_eccentricity": 0.00053586,
        "meta_inclination": 97.4254,
        "meta_ra_of_asc_node": 118.1695,
        "meta_arg_of_pericenter": 101.9243,
        "meta_mean_anomaly": 258.26,
        "meta_ephemeris_type": 0,
        "meta_classification_type": "U",
        "meta_norad_cat_id": 42988,
        "meta_element_set_no": 999,
        "meta_rev_at_epoch": 45388,
        "meta_bstar": 0.00057108607,
        "meta_mean_motion_dot": 0.0001764,
        "meta_mean_motion_ddot": 0,
        "tle_line1": "1 42988U 17068B   25347.31745101  .00017640  00000+0  57109-3 0  9998",
        "tle_line2": "2 42988  97.4254 118.1695 0005358 101.9243 258.2600 15.32083487453888"
      },
      "geometry": {
        "type": "Point",
        "coordinates": [
          107.81457787145413,
          55.21901256558456
        ]
      }
    },
    {
      "type": "Feature",
      "properties": {
        "norad_id": 42989,
        "name": "SKYSAT-C9",
        "group": "resource",
        "lat": -78.71970536938225,
        "lon": 158.83109147944668,
        "alt_km": 472.0614027713327,
        "timestamp": "2025-12-13T18:50:04.085987+00:00",
        "meta_object_name": "SKYSAT-C9",
        "meta_object_id": "2017-068C",
        "meta_epoch": "2025-12-13T06:40:54.368256",
        "meta_mean_motion": 15.36073836,
        "meta_eccentricity": 0.00106391,
        "meta_inclination": 97.4182,
        "meta_ra_of_asc_node": 117.5361,
        "meta_arg_of_pericenter": 85.6404,
        "meta_mean_anomaly": 274.6055,
        "meta_ephemeris_type": 0,
        "meta_classification_type": "U",
        "meta_norad_cat_id": 42989,
        "meta_element_set_no": 999,
        "meta_rev_at_epoch": 45416,
        "meta_bstar": 0.0006177282,
        "meta_mean_motion_dot": 0.00021697,
        "meta_mean_motion_ddot": 0,
        "tle_line1": "1 42989U 17068C   25347.27840704  .00021697  00000+0  61773-3 0  9998",
        "tle_line2": "2 42989  97.4182 117.5361 0010639  85.6404 274.6055 15.36073836454166"
      },
      "geometry": {
        "type": "Point",
        "coordinates": [
          158.83109147944668,
          -78.71970536938225
        ]
      }
    },
    {
      "type": "Feature",
      "properties": {
        "norad_id": 42990,
        "name": "SKYSAT-C8",
        "group": "resource",
        "lat": -56.9302421062228,
        "lon": -73.76886479262849,
        "alt_km": 474.4208761286809,
        "timestamp": "2025-12-13T18:50:04.085998+00:00",
        "meta_object_name": "SKYSAT-C8",
        "meta_object_id": "2017-068D",
        "meta_epoch": "2025-12-13T06:50:04.397568",
        "meta_mean_motion": 15.32941317,
        "meta_eccentricity": 0.0001576,
        "meta_inclination": 97.4276,
        "meta_ra_of_asc_node": 117.2868,
        "meta_arg_of_pericenter": 346.1093,
        "meta_mean_anomaly": 14.0105,
        "meta_ephemeris_type": 0,
        "meta_classification_type": "U",
        "meta_norad_cat_id": 42990,
        "meta_element_set_no": 999,
        "meta_rev_at_epoch": 45379,
        "meta_bstar": 0.00056624391,
        "meta_mean_motion_dot": 0.0001796,
        "meta_mean_motion_ddot": 0,
        "tle_line1": "1 42990U 17068D   25347.28477312  .00017960  00000+0  56624-3 0  9999",
        "tle_line2": "2 42990  97.4276 117.2868 0001576 346.1093  14.0105 15.32941317453794"
      },
      "geometry": {
        "type": "Point",
        "coordinates": [
          -73.76886479262849,
          -56.9302421062228
        ]
      }
    },
    {
      "type": "Feature",
      "properties": {
        "norad_id": 42991,
        "name": "SKYSAT-C7",
        "group": "resource",
        "lat": 82.51570150576622,
        "lon": 22.11754881913471,
        "alt_km": 457.1506514239163,
        "timestamp": "2025-12-13T18:50:04.086009+00:00",
        "meta_object_name": "SKYSAT-C7",
        "meta_object_id": "2017-068E",
        "meta_epoch": "2025-12-13T07:28:09.681888",
        "meta_mean_motion": 15.32346576,
        "meta_eccentricity": 0.00076186,
        "meta_inclination": 97.4284,
        "meta_ra_of_asc_node": 118.3543,
        "meta_arg_of_pericenter": 55.1316,
        "meta_mean_anomaly": 305.0641,
        "meta_ephemeris_type": 0,
        "meta_classification_type": "U",
        "meta_norad_cat_id": 42991,
        "meta_element_set_no": 999,
        "meta_rev_at_epoch": 45386,
        "meta_bstar": 0.00057267369,
        "meta_mean_motion_dot": 0.00017844,
        "meta_mean_motion_ddot": 0,
        "tle_line1": "1 42991U 17068E   25347.31122317  .00017844  00000+0  57267-3 0  9991",
        "tle_line2": "2 42991  97.4284 118.3543 0007618  55.1316 305.0641 15.32346576453866"
      },
      "geometry": {
        "type": "Point",
        "coordinates": [
          22.11754881913471,
          82.51570150576622
        ]
      }
    },
    {
      "type": "Feature",
      "properties": {
        "norad_id": 42992,
        "name": "SKYSAT-C6",
        "group": "resource",
        "lat": -24.54199105731132,
        "lon": -64.14990280934191,
        "alt_km": 478.97204501383203,
        "timestamp": "2025-12-13T18:50:04.086020+00:00",
        "meta_object_name": "SKYSAT-C6",
        "meta_object_id": "2017-068F",
        "meta_epoch": "2025-12-13T06:58:02.949024",
        "meta_mean_motion": 15.3150911,
        "meta_eccentricity": 0.00051621,
        "meta_inclination": 97.4317,
        "meta_ra_of_asc_node": 118.7714,
        "meta_arg_of_pericenter": 80.8815,
        "meta_mean_anomaly": 279.301,
        "meta_ephemeris_type": 0,
        "meta_classification_type": "U",
        "meta_norad_cat_id": 42992,
        "meta_element_set_no": 999,
        "meta_rev_at_epoch": 45384,
        "meta_bstar": 0.00056869547,
        "meta_mean_motion_dot": 0.00017253,
        "meta_mean_motion_ddot": 0,
        "tle_line1": "1 42992U 17068F   25347.29031191  .00017253  00000+0  56870-3 0  9991",
        "tle_line2": "2 42992  97.4317 118.7714 0005162  80.8815 279.3010 15.31509110453844"
      },
      "geometry": {
        "type": "Point",
        "coordinates": [
          -64.14990280934191,
          -24.54199105731132
        ]
      }
    },
    {
      "type": "Feature",
      "properties": {
        "norad_id": 43111,
        "name": "CARTOSAT-2F",
        "group": "resource",
        "lat": -81.11806826447412,
        "lon": 168.75825408975746,
        "alt_km": 515.8055296544389,
        "timestamp": "2025-12-13T18:50:04.086031+00:00",
        "meta_object_name": "CARTOSAT-2F",
        "meta_object_id": "2018-004A",
        "meta_epoch": "2025-12-13T08:11:12.590880",
        "meta_mean_motion": 15.1928559,
        "meta_eccentricity": 0.00011212,
        "meta_inclination": 97.4319,
        "meta_ra_of_asc_node": 44.9687,
        "meta_arg_of_pericenter": 140.2572,
        "meta_mean_anomaly": 219.8745,
        "meta_ephemeris_type": 0,
        "meta_classification_type": "U",
        "meta_norad_cat_id": 43111,
        "meta_element_set_no": 999,
        "meta_rev_at_epoch": 43911,
        "meta_bstar": 0.00032193301,
        "meta_mean_motion_dot": 6.726e-05,
        "meta_mean_motion_ddot": 0,
        "tle_line1": "1 43111U 18004A   25347.34111795  .00006726  00000+0  32193-3 0  9996",
        "tle_line2": "2 43111  97.4319  44.9687 0001121 140.2572 219.8745 15.19285590439118"
      },
      "geometry": {
        "type": "Point",
        "coordinates": [
          168.75825408975746,
          -81.11806826447412
        ]
      }
    },
    {
      "type": "Feature",
      "properties": {
        "norad_id": 43259,
        "name": "GAOFEN-1 02",
        "group": "resource",
        "lat": -49.95395399304337,
        "lon": -144.15740273596694,
        "alt_km": 646.3416797415612,
        "timestamp": "2025-12-13T18:50:04.086047+00:00",
        "meta_object_name": "GAOFEN-1 02",
        "meta_object_id": "2018-031A",
        "meta_epoch": "2025-12-13T06:24:27.117792",
        "meta_mean_motion": 14.76419617,
        "meta_eccentricity": 0.00017935,
        "meta_inclination": 98.0805,
        "meta_ra_of_asc_node": 45.0564,
        "meta_arg_of_pericenter": 215.2214,
        "meta_mean_anomaly": 144.8877,
        "meta_ephemeris_type": 0,
        "meta_classification_type": "U",
        "meta_norad_cat_id": 43259,
        "meta_element_set_no": 999,
        "meta_rev_at_epoch": 41526,
        "meta_bstar": 0.00033592537,
        "meta_mean_motion_dot": 2.284e-05,
        "meta_mean_motion_ddot": 0,
        "tle_line1": "1 43259U 18031A   25347.26698053  .00002284  00000+0  33593-3 0  9997",
        "tle_line2": "2 43259  98.0805  45.0564 0001793 215.2214 144.8877 14.76419617415269"
      },
      "geometry": {
        "type": "Point",
        "coordinates": [
          -144.15740273596694,
          -49.95395399304337
        ]
      }
    }
  ]
}